1 45693U 20035AN  23219.30670544  .00033221  00000-0  22385-2 0  9996
2 45693  53.0554 340.6068 0000685 117.1843 242.9216 15.06402685175974
1 45693U 20035AN  23219.63843338  .00039025  00000-0  26219-2 0  9993
2 45693  53.0561 339.1183 0000689 119.5371 240.5686 15.06434661176020
1 45693U 20035AN  23220.03650980  .00025116  00000-0  16975-2 0  9992
2 45693  53.0545 337.3322 0000315  89.0210 271.0815 15.06433446176085
1 45693U 20035AN  23220.69998319  .00044538  00000-0  29893-2 0  9997
2 45693  53.0554 334.3530 0000113  81.6305 278.4696 15.06409740176181
1 45693U 20035AN  23221.69516835  .00024914  00000-0  16834-2 0  9994
2 45693  53.0547 329.8853 0000471  59.3123 300.7912 15.06448080176334
1 45693U 20035AN  23222.42499034  .00020021  00000-0  13590-2 0  9998
2 45693  53.0546 326.6084 0000673  70.6005 289.5056 15.06404235176442
1 45693U 20035AN  23222.69037959  .00014189  00000-0  96968-3 0  9990
2 45693  53.0547 325.4160 0000722  66.9145 293.1920 15.06394378176484
1 45693U 20035AN  23223.68556820  .00018749  00000-0  12730-2 0  9993
2 45693  53.0556 320.9489 0000836  69.8460 290.2619 15.06436256176638
1 45693U 20035AN  23224.41538995 -.00002819  00000-0 -17047-3 0  9998
2 45693  53.0556 317.6736 0000766  81.3777 278.7299 15.06394271176745
1 45693U 20035AN  23225.47694183  .00013803  00000-0  94343-3 0  9994
2 45693  53.0553 312.9081 0000693  91.0741 269.0327 15.06411197176901
1 45693U 20035AN  23225.94137065 -.00008317  00000-0 -54030-3 0  9992
2 45693  53.0561 310.8241 0000831 119.7072 240.4000 15.06388532176978
1 45693U 20035AN  23226.73753839  .00010945  00000-0  75254-3 0  9992
2 45693  53.0553 307.2498 0000669 103.8634 256.2429 15.06398487177094
1 45693U 20035AN  23228.46255755  .00007084  00000-0  49394-3 0  9994
2 45693  53.0541 299.5052 0000726  76.6871 283.4199 15.06400556177350
1 45693U 20035AN  23229.45775215  .00021290  00000-0  14426-2 0  9994
2 45693  53.0543 295.0378 0000853  92.4112 267.6975 15.06432099177509
1 45693U 20035AN  23230.45295969  .00001274  00000-0  10441-3 0  9993
2 45693  53.0542 290.5711 0000777 101.7888 258.3189 15.06393124177653
1 45693U 20035AN  23231.64720472  .00013029  00000-0  89161-3 0  9993
2 45693  53.0539 285.2099 0000779 101.1275 258.9802 15.06413530177837
1 45693U 20035AN  23232.37702656  .00004762  00000-0  33836-3 0  9990
2 45693  53.0540 281.9338 0000764  89.1643 270.9433 15.06395961177949
1 45693U 20035AN  23233.43856574  .00038630  00000-0  25949-2 0  9993
2 45693  53.0533 277.1669 0000771 120.3032 239.8034 15.06446266178108
1 45693U 20035AN  23234.43376426  .00000263  00000-0  36552-4 0  9992
2 45693  53.0531 272.7003 0001443 151.8093 208.2974 15.06410663178253
1 45693U 20035AN  23235.36262580  .00009685  00000-0  66807-3 0  9992
2 45693  53.0548 268.5201 0001430  84.7946 275.3206 15.06405222178394
1 45693U 20035AN  23236.55687395  .00002278  00000-0  17180-3 0  9990
2 45693  53.0539 263.1673 0001320 105.2091 254.9044 15.06396646178972
1 45693U 20035AN  23237.48572631  .00009799  00000-0  67559-3 0  9999
2 45693  53.0542 258.9985 0001403  96.2207 263.8942 15.06413305179119
1 45693U 20035AN  23237.48572631  .00009799  00000-0  67559-3 0  9999
2 45693  53.0542 258.9985 0001403  96.2207 263.8942 15.06413305178714
1 45693U 20035AN  23238.08284401  .00003881  00000-0  27920-3 0  9995
2 45693  53.0541 256.3177 0001407  96.5554 263.5595 15.06410905178804
1 45693U 20035AN  23238.41457471  .00004634  00000-0  32965-3 0  9993
2 45693  53.0543 254.8289 0001466  97.7463 262.3692 15.06414770179259
1 45693U 20035AN  23239.07804701 -.00000829  00000-0 -36731-4 0  9998
2 45693  53.0542 251.8500 0001488 103.0258 257.0897 15.06397126178957
1 45693U 20035AN  23239.21074319 -.00001174  00000-0 -59968-4 0  9999
2 45693  53.0536 251.2545 0001337  94.9976 265.1166 15.06392533179374
1 45693U 20035AN  23239.40978551  .00000767  00000-0  70422-4 0  9994
2 45693  53.0534 250.3610 0001350  93.0827 267.0317 15.06391651179408
1 45693U 20035AN  23239.40978551  .00000767  00000-0  70422-4 0  9994
2 45693  53.0534 250.3610 0001350  93.0827 267.0317 15.06391651179004
1 45693U 20035AN  23240.73672890  .00003311  00000-0  24107-3 0  9995
2 45693  53.0533 244.4043 0001393  91.8091 268.3057 15.06398840179601
1 45693U 20035AN  23240.73672890  .00003311  00000-0  24107-3 0  9995
2 45693  53.0533 244.4043 0001393  91.8091 268.3057 15.06398840179207
1 45693U 20035AN  23241.40019487  .00007885  00000-0  54747-3 0  9990
2 45693  53.0529 241.4261 0001432  90.0700 270.0453 15.06410982179700
1 45693U 20035AN  23242.13001500 -.00000295  00000-0 -91991-6 0  9993
2 45693  53.0529 238.1496 0001618  94.7295 265.3879 15.06395119179410
1 45693U 20035AN  23242.46175094  .00000215  00000-0  33364-4 0  9997
2 45693  53.0544 236.6596 0001495 105.0263 255.0892 15.06394970179869
1 45693U 20035AN  23243.39060102  .00004430  00000-0  31600-3 0  9996
2 45693  53.0532 232.4905 0001460  97.0368 263.0787 15.06409156180005
1 45693U 20035AN  23243.39060102  .00004430  00000-0  31600-3 0  9996
2 45693  53.0532 232.4905 0001460  97.0368 263.0787 15.06409156179609
1 45693U 20035AN  23243.98773299 -.00002019  00000-0 -11675-3 0  9992
2 45693  53.0541 229.8099 0001394  95.1404 264.9745 15.06386178179690
1 45693U 20035AN  23244.45215985  .00001804  00000-0  13996-3 0  9995
2 45693  53.0540 227.7251 0001300  94.1762 265.9376 15.06395988180163
1 45693U 20035AN  23244.45215985  .00001804  00000-0  13996-3 0  9995
2 45693  53.0540 227.7251 0001300  94.1762 265.9376 15.06395988179767
1 45693U 20035AN  23244.65120177  .00001945  00000-0  14942-3 0  9993
2 45693  53.0534 226.8317 0001450  94.9103 265.2051 15.06396659180194
1 45693U 20035AN  23245.38101378  .00007925  00000-0  55016-3 0  9997
2 45693  53.0525 223.5549 0001544  95.7114 264.4051 15.06410393180306
1 45693U 20035AN  23245.64640643  .00001104  00000-0  93026-4 0  9996
2 45693  53.0525 222.3609 0002373  82.5057 277.6202 15.06391052180349
1 45693U 20035AN  23245.64640643  .00001104  00000-0  93026-4 0  9996
2 45693  53.0525 222.3609 0002373  82.5057 277.6202 15.06391052179943
1 45693U 20035AN  23246.44256879  .00003868  00000-0  27842-3 0  9990
2 45693  53.0542 218.7894 0001392  88.4139 271.7009 15.06401841180460
1 45693U 20035AN  23247.03969071  .00006415  00000-0  44910-3 0  9997
2 45693  53.0541 216.1092 0001399  87.4197 272.6952 15.06403387180151
1 45693U 20035AN  23247.30507647  .00007181  00000-0  50037-3 0  9992
2 45693  53.0541 214.9188 0001424  85.6677 274.4474 15.06407458180595
1 45693U 20035AN  23247.63681252  .00001601  00000-0  12636-3 0  9997
2 45693  53.0551 213.4262 0001354  94.0524 266.0620 15.06397955180242
1 45693U 20035AN  23248.16759128  .00001030  00000-0  88072-4 0  9998
2 45693  53.0550 211.0471 0001528  88.4303 271.6861 15.06395130180727
1 45693U 20035AN  23249.09644026  .00006157  00000-0  43173-3 0  9998
2 45693  53.0551 206.8768 0001360  97.7412 262.3732 15.06413544180866
1 45693U 20035AN  23249.09644026  .00006157  00000-0  43173-3 0  9998
2 45693  53.0551 206.8768 0001360  97.7412 262.3732 15.06413544180462
1 45693U 20035AN  23249.89261189  .00003492  00000-0  25323-3 0  9997
2 45693  53.0536 203.3030 0001556  17.7322 342.3721 15.06396818180986
1 45693U 20035AN  23249.89261189  .00003492  00000-0  25323-3 0  9997
2 45693  53.0536 203.3030 0001556  17.7322 342.3721 15.06396818180582
1 45693U 20035AN  23250.15800223 -.00000209  00000-0  48618-5 0  9994
2 45693  53.0559 202.1103 0000719  75.6756 284.4312 15.06388394181021
1 45693U 20035AN  23250.15800223 -.00000209  00000-0  48618-5 0  9994
2 45693  53.0559 202.1103 0000719  75.6756 284.4312 15.06388394180626
1 45693U 20035AN  23250.88781733  .00002631  00000-0  19545-3 0  9993
2 45693  53.0555 198.8351 0001047  79.6490 280.4617 15.06395686181135
1 45693U 20035AN  23251.15320593  .00014092  00000-0  96304-3 0  9999
2 45693  53.0541 197.6445 0001537 101.1022 259.0139 15.06400194180778
1 45693U 20035AN  23251.21954937  .00012284  00000-0  84196-3 0  9998
2 45693  53.0546 197.3468 0001464  95.4511 264.6645 15.06408454181189
1 45693U 20035AN  23252.08207184  .00004639  00000-0  33021-3 0  9995
2 45693  53.0547 193.4752 0001600 108.5558 251.5605 15.06386981180913
1 45693U 20035AN  23252.54650471  .00016504  00000-0  11244-2 0  9993
2 45693  53.0531 191.3894 0001344 106.3822 253.7314 15.06395530181388
1 45693U 20035AN  23253.07727602  .00022486  00000-0  15228-2 0  9995
2 45693  53.0539 189.0069 0001478 104.4516 255.6637 15.06420661181069
1 45693U 20035AN  23253.20996765  .00020954  00000-0  14205-2 0  9990
2 45693  53.0536 188.4111 0001493 103.1945 256.9211 15.06424369181483
1 45693U 20035AN  23253.80709546  .00008646  00000-0  59855-3 0  9990
2 45693  53.0538 185.7312 0001809  97.0101 263.1094 15.06405712181170
1 45693U 20035AN  23254.07248681  .00023288  00000-0  15772-2 0  9996
2 45693  53.0541 184.5404 0001496 101.8678 258.2478 15.06398351181214
1 45693U 20035AN  23254.53691155  .00026378  00000-0  17822-2 0  9996
2 45693  53.0541 182.4530 0001536 101.9119 258.2042 15.06418639181687
1 45693U 20035AN  23255.06767201  .00029320  00000-0  19763-2 0  9997
2 45693  53.0546 180.0716 0001427  94.7591 265.3561 15.06451705181769
1 45693U 20035AN  23255.06767201  .00029320  00000-0  19763-2 0  9997
2 45693  53.0546 180.0716 0001427  94.7591 265.3561 15.06451705181365
1 45693U 20035AN  23256.06287366  .00008745  00000-0  60507-3 0  9998
2 45693  53.0549 175.6028 0001452  79.2224 280.8928 15.06410621181511
1 45693U 20035AN  23256.19557105  .00022976  00000-0  15560-2 0  9993
2 45693  53.0544 175.0058 0001457  67.2258 292.8885 15.06407520181937
1 45693U 20035AN  23256.92538468  .00004302  00000-0  30769-3 0  9997
2 45693  53.0553 171.7319 0001221  73.8205 286.2918 15.06380781182040
1 45693U 20035AN  23257.05807727 -.00004431  00000-0 -27882-3 0  9996
2 45693  53.0550 171.1376 0001432  97.3673 262.7479 15.06390197181668
1 45693U 20035AN  23257.19077135 -.00000223  00000-0  39391-5 0  9997
2 45693  53.0550 170.5404 0001363  89.1809 270.9336 15.06395633182086
